OBJECT_NAME,OBJECT_ID,EPOCH,MEAN_MOTION,ECCENTRICITY,INCLINATION,RA_OF_ASC_NODE,ARG_OF_PERICENTER,MEAN_ANOMALY,EPHEMERIS_TYPE,CLASSIFICATION_TYPE,NORAD_CAT_ID,ELEMENT_SET_NO,REV_AT_EPOCH,BSTAR,MEAN_MOTION_DOT,MEAN_MOTION_DDOT
ONEWEB-0620,2023-004X,2026-06-27T12:20:58.752960,13.11417009,.0002025,87.8879,19.0207,93.5444,266.5915,0,U,55161,999,16718,-.11641E-2,-.4E-5,0
ONEWEB-0621,2023-004Y,2026-06-27T13:00:03.883968,13.11416745,.0001926,87.8890,19.0049,81.0712,279.0634,0,U,55162,999,16716,.14999E-2,.544E-5,0
ONEWEB-0622,2023-004Z,2026-06-27T11:17:31.638048,13.11415751,.0002547,87.8890,19.0217,82.2304,277.9113,0,U,55163,999,16714,.17874E-2,.646E-5,0
ONEWEB-0623,2023-004AA,2026-06-27T11:56:10.174272,13.17650138,.000229,87.9129,3.8270,71.4402,288.6978,0,U,55164,999,16894,.21154E-4,.21E-6,0
ONEWEB-0624,2023-004AB,2026-06-27T11:35:40.339392,13.12928103,.0001845,87.8948,348.5354,89.8403,270.2937,0,U,55165,999,16942,-.63786E-4,-.1E-6,0
ONEWEB-0625,2023-004AC,2026-06-27T11:41:36.627072,13.17649272,.0001681,87.9132,3.8249,89.8934,270.2390,0,U,55166,999,16893,.30631E-4,.25E-6,0
ONEWEB-0626,2023-004AD,2026-06-27T11:27:00.088704,13.17657280,.0002125,87.9131,3.8263,100.1124,260.0247,0,U,55167,999,16893,.15455E-3,.73E-6,0
ONEWEB-0627,2023-004AE,2026-06-27T11:10:00.198048,13.17652866,.0002149,87.9131,3.8290,77.0014,283.1357,0,U,55168,999,16893,.5149E-3,.213E-5,0
ONEWEB-0628,2023-004AF,2026-06-27T11:14:24.207072,13.12441568,.0002053,87.8952,348.6081,73.7543,286.3811,0,U,55169,999,16938,.13398E-2,.495E-5,0
ONEWEB-0629,2023-004AG,2026-06-27T12:24:07.676928,13.17649165,.000173,87.9131,3.8149,80.5032,279.6295,0,U,55170,999,16894,.28069E-3,.122E-5,0
ONEWEB-0631,2023-004AH,2026-06-27T10:05:47.833728,13.18686353,.0002352,87.9177,333.3998,97.7753,262.3646,0,U,55171,999,17102,.37901E-4,.28E-6,0
ONEWEB-0709,2023-004AJ,2026-06-27T12:06:19.941408,13.11416728,.0002222,87.8879,19.0247,111.0115,249.1251,0,U,55172,999,16722,-.12035E-2,-.414E-5,0
ONEWEB-0710,2023-004AK,2026-06-27T12:44:46.216608,13.17650995,.0002007,87.9131,3.8073,86.7450,273.3911,0,U,55173,999,16894,.14332E-3,.69E-6,0
ONEWEB-0711,2023-004AL,2026-06-27T11:24:51.025248,13.11415157,.0002407,87.8882,19.0182,75.3513,284.7882,0,U,55174,999,16718,.13971E-2,.508E-5,0
ONEWEB-0713,2023-004AM,2026-06-27T11:51:41.675904,13.11415096,.0002123,87.8881,19.0161,80.4156,279.7211,0,U,55175,999,16717,-.53373E-3,-.176E-5,0
ONEWEB-0715,2023-004AN,2026-06-27T11:44:21.941376,13.11413760,.0002333,87.8880,19.0179,101.3049,258.8341,0,U,55176,999,16721,.23706E-4,.21E-6,0
ONEWEB-0716,2023-004AP,2026-06-27T12:35:02.937984,13.17651011,.0001634,87.9132,3.8115,91.9404,268.1915,0,U,55177,999,16894,.55711E-4,.35E-6,0
ONEWEB-0717,2023-004AQ,2026-06-27T12:10:46.183872,13.17649343,.000242,87.9140,3.8035,84.3666,275.7741,0,U,55178,999,16899,.16182E-3,.76E-6,0
ONEWEB-0719,2023-004AR,2026-06-27T12:25:20.964000,13.17650400,.0001694,87.9142,3.7818,87.0696,273.0629,0,U,55179,999,16894,.20554E-3,.93E-6,0
ONEWEB-0530,2023-029A,2026-06-27T13:03:53.709696,13.20772039,.0002161,87.9187,272.4042,87.7187,272.4194,0,U,55796,999,16251,-.54298E-4,-.9E-7,0
ONEWEB-0534,2023-029B,2026-06-27T12:46:54.765120,13.20772600,.0001911,87.9189,272.4074,101.6551,258.4797,0,U,55797,999,16251,.10034E-3,.54E-6,0
ONEWEB-0556,2023-029C,2026-06-27T12:56:34.924704,13.20773728,.0001268,87.9185,272.4050,84.6088,275.5190,0,U,55798,999,16251,-.15587E-3,-.5E-6,0
ONEWEB-0562,2023-029D,2026-06-27T07:09:57.146976,13.20771666,.0001947,87.9188,272.4343,75.7305,284.4044,0,U,55799,999,16248,.26553E-4,.24E-6,0
ONEWEB-0563,2023-029E,2026-06-27T12:29:56.695776,13.20773092,.0001846,87.9187,272.4203,105.6497,254.4840,0,U,55800,999,16250,.87134E-4,.48E-6,0
ONEWEB-0564,2023-029F,2026-06-27T12:20:15.800928,13.20772332,.0002015,87.9187,272.3952,88.8108,271.3256,0,U,55801,999,16251,.31988E-3,.143E-5,0
ONEWEB-0638,2023-029G,2026-06-27T08:44:53.023776,13.14504382,.0001523,87.8961,287.7225,86.6375,273.4929,0,U,55802,999,16073,.25384E-3,.107E-5,0
ONEWEB-0639,2023-029H,2026-06-27T10:03:04.730400,13.19725939,.0001834,87.9177,302.9375,130.4151,229.7142,0,U,55803,999,16025,-.98996E-4,-.27E-6,0
ONEWEB-0640,2023-029J,2026-06-27T07:08:58.026048,13.14503499,.000123,87.8960,287.7268,97.4914,262.6356,0,U,55804,999,16074,.61598E-3,.241E-5,0
ONEWEB-0641,2023-029K,2026-06-27T09:56:15.997920,13.19726190,.0001904,87.9185,302.9286,105.4583,254.6760,0,U,55805,999,16026,-.31095E-4,0,0
ONEWEB-0642,2023-029L,2026-06-27T08:00:16.900416,13.19725358,.0002041,87.9178,302.9558,124.6599,235.4727,0,U,55806,999,16024,-.30014E-3,-.107E-5,0
ONEWEB-0643,2023-029M,2026-06-27T08:15:11.570688,13.14504357,.0002259,87.8960,287.7049,117.9746,242.1613,0,U,55807,999,16072,-.337E-3,-.112E-5,0
