ONEWEB-0620             
1 55161U 23004X   26178.51456890 -.00000400  00000+0 -11641-2 0  9999
2 55161  87.8879  19.0207 0002025  93.5444 266.5915 13.11417009167188
ONEWEB-0621             
1 55162U 23004Y   26178.54171162  .00000544  00000+0  14999-2 0  9995
2 55162  87.8890  19.0049 0001926  81.0712 279.0634 13.11416745167166
ONEWEB-0622             
1 55163U 23004Z   26178.47050507  .00000646  00000+0  17874-2 0  9995
2 55163  87.8890  19.0217 0002547  82.2304 277.9113 13.11415751167147
ONEWEB-0623             
1 55164U 23004AA  26178.49733998  .00000021  00000+0  21154-4 0  9995
2 55164  87.9129   3.8270 0002290  71.4402 288.6978 13.17650138168941
ONEWEB-0624             
1 55165U 23004AB  26178.48310578 -.00000010  00000+0 -63786-4 0  9997
2 55165  87.8948 348.5354 0001845  89.8403 270.2937 13.12928103169422
ONEWEB-0625             
1 55166U 23004AC  26178.48722948  .00000025  00000+0  30631-4 0  9993
2 55166  87.9132   3.8249 0001681  89.8934 270.2390 13.17649272168930
ONEWEB-0626             
1 55167U 23004AD  26178.47708436  .00000073  00000+0  15455-3 0  9998
2 55167  87.9131   3.8263 0002125 100.1124 260.0247 13.17657280168934
ONEWEB-0627             
1 55168U 23004AE  26178.46528007  .00000213  00000+0  51490-3 0  9997
2 55168  87.9131   3.8290 0002149  77.0014 283.1357 13.17652866168934
ONEWEB-0628             
1 55169U 23004AF  26178.46833573  .00000495  00000+0  13398-2 0  9991
2 55169  87.8952 348.6081 0002053  73.7543 286.3811 13.12441568169387
ONEWEB-0629             
1 55170U 23004AG  26178.51675552  .00000122  00000+0  28069-3 0  9999
2 55170  87.9131   3.8149 0001730  80.5032 279.6295 13.17649165168944
ONEWEB-0631             
1 55171U 23004AH  26178.42069252  .00000028  00000+0  37901-4 0  9995
2 55171  87.9177 333.3998 0002352  97.7753 262.3646 13.18686353171022
ONEWEB-0709             
1 55172U 23004AJ  26178.50439747 -.00000414  00000+0 -12035-2 0  9995
2 55172  87.8879  19.0247 0002222 111.0115 249.1251 13.11416728167226
ONEWEB-0710             
1 55173U 23004AK  26178.53109047  .00000069  00000+0  14332-3 0  9993
2 55173  87.9131   3.8073 0002007  86.7450 273.3911 13.17650995168942
ONEWEB-0711             
1 55174U 23004AL  26178.47559057  .00000508  00000+0  13971-2 0  9992
2 55174  87.8882  19.0182 0002407  75.3513 284.7882 13.11415157167184
ONEWEB-0713             
1 55175U 23004AM  26178.49423236 -.00000176  00000+0 -53373-3 0  9998
2 55175  87.8881  19.0161 0002123  80.4156 279.7211 13.11415096167177
ONEWEB-0715             
1 55176U 23004AN  26178.48914284  .00000021  00000+0  23706-4 0  9991
2 55176  87.8880  19.0179 0002333 101.3049 258.8341 13.11413760167216
ONEWEB-0716             
1 55177U 23004AP  26178.52433956  .00000035  00000+0  55711-4 0  9995
2 55177  87.9132   3.8115 0001634  91.9404 268.1915 13.17651011168942
ONEWEB-0717             
1 55178U 23004AQ  26178.50747898  .00000076  00000+0  16182-3 0  9990
2 55178  87.9140   3.8035 0002420  84.3666 275.7741 13.17649343168994
ONEWEB-0719             
1 55179U 23004AR  26178.51760375  .00000093  00000+0  20554-3 0  9994
2 55179  87.9142   3.7818 0001694  87.0696 273.0629 13.17650400168947
ONEWEB-0530             
1 55796U 23029A   26178.54437164 -.00000009  00000+0 -54298-4 0  9998
2 55796  87.9187 272.4042 0002161  87.7187 272.4194 13.20772039162511
ONEWEB-0534             
1 55797U 23029B   26178.53257830  .00000054  00000+0  10034-3 0  9995
2 55797  87.9189 272.4074 0001911 101.6551 258.4797 13.20772600162519
ONEWEB-0556             
1 55798U 23029C   26178.53929311 -.00000050  00000+0 -15587-3 0  9992
2 55798  87.9185 272.4050 0001268  84.6088 275.5190 13.20773728162519
ONEWEB-0562             
1 55799U 23029D   26178.29857809  .00000024  00000+0  26553-4 0  9993
2 55799  87.9188 272.4343 0001947  75.7305 284.4044 13.20771666162487
ONEWEB-0563             
1 55800U 23029E   26178.52079509  .00000048  00000+0  87134-4 0  9993
2 55800  87.9187 272.4203 0001846 105.6497 254.4840 13.20773092162506
ONEWEB-0564             
1 55801U 23029F   26178.51407177  .00000143  00000+0  31988-3 0  9990
2 55801  87.9187 272.3952 0002015  88.8108 271.3256 13.20772332162513
ONEWEB-0638             
1 55802U 23029G   26178.36450259  .00000107  00000+0  25384-3 0  9996
2 55802  87.8961 287.7225 0001523  86.6375 273.4929 13.14504382160734
ONEWEB-0639             
1 55803U 23029H   26178.41880475 -.00000027  00000+0 -98996-4 0  9993
2 55803  87.9177 302.9375 0001834 130.4151 229.7142 13.19725939160252
ONEWEB-0640             
1 55804U 23029J   26178.29789382  .00000241  00000+0  61598-3 0  9998
2 55804  87.8960 287.7268 0001230  97.4914 262.6356 13.14503499160749
ONEWEB-0641             
1 55805U 23029K   26178.41407405  .00000000  00000+0 -31095-4 0  9990
2 55805  87.9185 302.9286 0001904 105.4583 254.6760 13.19726190160267
ONEWEB-0642             
1 55806U 23029L   26178.33352894 -.00000107  00000+0 -30014-3 0  9991
2 55806  87.9178 302.9558 0002041 124.6599 235.4727 13.19725358160248
ONEWEB-0643             
1 55807U 23029M   26178.34388392 -.00000112  00000+0 -33700-3 0  9996
2 55807  87.8960 287.7049 0002259 117.9746 242.1613 13.14504357160723
